NORAD_CAT_ID,OBJECT_NAME,OBJECT_TYPE,EPOCH,MEAN_MOTION,ECCENTRICITY,INCLINATION,RA_OF_ASC_NODE,ARG_OF_PERICENTER,MEAN_ANOMALY,BSTAR,MEAN_MOTION_DOT,MEAN_MOTION_DDOT,TLE_LINE0,TLE_LINE1,TLE_LINE2,SEMIMAJOR_AXIS,PERIOD,APOGEE,PERIGEE,DECAYED
50849.0,STARLINK-3311,PAYLOAD,2022-05-08 06:00:00,15.08869727,0.0002127,53.219,350.4199,39.3692,83.2146,-0.0043571,-0.00069026,0.0,0 STARLINK-3311,1 50849U 22001AY  22128.25001157 -.00069026  00000-0 -43571-2 0  9994,2 50849  53.2190 350.4199 0002127  39.3692  83.2146 15.08869727 19897,6917.79,95.436,541.126,538.183,0.0
50849.0,STARLINK-3311,PAYLOAD,2022-05-08 14:00:01,15.08818996,0.0001973,53.2195,348.9224,43.7155,90.4708,0.0021156999999999,0.00033525,0.0,0 STARLINK-3311,1 50849U 22001AY  22128.58334491  .00033525  00000-0  21157-2 0  9999,2 50849  53.2195 348.9224 0001973  43.7155  90.4708 15.08818996  3602,6917.945,95.439,541.175,538.445,0.0
50849.0,STARLINK-3311,PAYLOAD,2022-05-08 20:00:01,15.08846098,0.0002113,53.2194,347.8017,40.4423,12.4295,-0.0010639,-0.00017184,0.0,0 STARLINK-3311,1 50849U 22001AY  22128.83334491 -.00017184  00000-0 -10639-2 0  9995,2 50849  53.2194 347.8017 0002113  40.4423  12.4295 15.08846098 19985,6917.861999999999,95.437,541.188,538.265,0.0
50849.0,STARLINK-3311,PAYLOAD,2022-05-08 22:00:00,15.08835671,0.0002158,53.2195,347.42800000000005,39.6865,106.0869,0.00028363,4.228e-05,0.0,0 STARLINK-3311,1 50849U 22001AY  22128.91667824  .00004228  00000-0  28363-3 0  9990,2 50849  53.2195 347.4280 0002158  39.6865 106.0869 15.08835671  3607,6917.894,95.438,541.252,538.266,0.0
50849.0,STARLINK-3311,PAYLOAD,2022-05-09 14:00:01,15.0882525,0.0001902,53.2197,344.4336,42.8293,126.196,0.0018751,0.00029668,0.0,0 STARLINK-3311,1 50849U 22001AY  22129.58335648  .00029668  00000-0  18751-2 0  9994,2 50849  53.2197 344.4336 0001902  42.8293 126.1960 15.08825250 20094,6917.925,95.438,541.106,538.475,0.0
50849.0,STARLINK-3311,PAYLOAD,2022-05-09 22:00:00,15.08834489,0.0002096,53.2195,342.9393,38.2013,142.3527,0.0007699,0.00011984,0.0,0 STARLINK-3311,1 50849U 22001AY  22129.91667824  .00011984  00000-0  76990-3 0  9997,2 50849  53.2195 342.9393 0002096  38.2013 142.3527 15.08834489  3591,6917.897,95.438,541.212,538.312,0.0
50849.0,STARLINK-3311,PAYLOAD,2022-05-10 08:00:01,15.08840421,0.0001892,53.2194,341.0676,38.4042,246.6455,-0.0017863,-0.00028605,0.0,0 STARLINK-3311,1 50849U 22001AY  22130.33334491 -.00028605  00000-0 -17863-2 0  9999,2 50849  53.2194 341.0676 0001892  38.4042 246.6455 15.08840421 20210,6917.879,95.438,541.053,538.435,0.0
50849.0,STARLINK-3311,PAYLOAD,2022-05-10 14:00:01,15.08826049,0.0001818,53.2194,339.9452,41.7383,161.9992,0.0014091,0.000222,0.0,0 STARLINK-3311,1 50849U 22001AY  22130.58334491  .00022200  00000-0  14091-2 0  9999,2 50849  53.2194 339.9452 0001818  41.7383 161.9992 15.08826049  3598,6917.9230000000025,95.438,541.0459999999998,538.53,0.0
50849.0,STARLINK-3311,PAYLOAD,2022-05-10 18:00:00,15.08845304,0.0001916,53.2193,339.1981,39.0573,350.4658,-0.0015742,-0.00025258,0.0,0 STARLINK-3311,1 50849U 22001AY  22130.75001157 -.00025258  00000-0 -15742-2 0  9990,2 50849  53.2193 339.1981 0001916  39.0573 350.4658 15.08845304 20279,6917.864000000001,95.437,541.055,538.404,0.0
50849.0,STARLINK-3311,PAYLOAD,2022-05-11 22:00:00,15.08814711,0.0001994,53.2185,333.9621,36.3497,213.7283,0.0015775,0.0002489,0.0,0 STARLINK-3311,1 50849U 22001AY  22131.91667824  .00024890  00000-0  15775-2 0  9993,2 50849  53.2185 333.9621 0001994  36.3497 213.7283 15.08814711 20457,6917.958000000001,95.439,541.202,538.443,0.0
50849.0,STARLINK-3311,PAYLOAD,2022-05-12 14:00:01,15.08850791,0.0001811,53.2181,330.9678,42.213,231.0317,0.00085963,0.00013424,0.0,0 STARLINK-3311,1 50849U 22001AY  22132.58334491  .00013424  00000-0  85963-3 0  9996,2 50849  53.2181 330.9678 0001811  42.2130 231.0317 15.08850791  1302,6917.847,95.437,540.965,538.46,0.0
50849.0,STARLINK-3311,PAYLOAD,2022-05-12 22:00:00,15.08840632,0.0002059,53.218,329.4732,37.804,247.0561,0.0022072,0.00035015,0.0,0 STARLINK-3311,1 50849U 22001AY  22132.91667824  .00035015  00000-0  22072-2 0  9993,2 50849  53.2180 329.4732 0002059  37.8040 247.0561 15.08840632  1301,6917.878000000002,95.438,541.168,538.319,0.0
50849.0,STARLINK-3311,PAYLOAD,2022-05-13 06:00:00,15.08875877,0.0001963,53.2177,327.9754,39.4644,257.0059,-0.0037439,-0.0005944,0.0,0 STARLINK-3311,1 50849U 22001AY  22133.25001157 -.00059440  00000-0 -37439-2 0  9995,2 50849  53.2177 327.9754 0001963  39.4644 257.0059 15.08875877 20656,6917.771,95.435,540.994,538.278,0.0
50849.0,STARLINK-3311,PAYLOAD,2022-05-13 14:00:01,15.08842822,0.0001925,53.2178,326.4785,43.7765,264.2987,-0.0014004,-0.00022508,0.0,0 STARLINK-3311,1 50849U 22001AY  22133.58334491 -.00022508  00000-0 -14004-2 0  9999,2 50849  53.2178 326.4785 0001925  43.7765 264.2987 15.08842822  1300,6917.871999999999,95.437,541.068,538.405,0.0
50849.0,STARLINK-3311,PAYLOAD,2022-05-13 22:00:00,15.08813652,0.0002113,53.2177,324.9839,37.747,281.9224,0.0019698,0.00031178,0.0,0 STARLINK-3311,1 50849U 22001AY  22133.91667824  .00031178  00000-0  19698-2 0  9990,2 50849  53.2177 324.9839 0002113  37.7470 281.9224 15.08813652 20757,6917.9609999999975,95.439,541.288,538.364,0.0
50849.0,STARLINK-3311,PAYLOAD,2022-05-14 14:00:01,15.08835832,0.0001926,53.2179,321.9893,40.0153,302.8101,0.00035014,5.288e-05,0.0,0 STARLINK-3311,1 50849U 22001AY  22134.58334491  .00005288  00000-0  35014-3 0  9999,2 50849  53.2179 321.9893 0001926  40.0153 302.8101 15.08835832  1303,6917.893,95.438,541.091,538.4259999999998,0.0
50849.0,STARLINK-3311,PAYLOAD,2022-05-14 16:00:00,15.0884616,0.0001996,53.2178,321.6158,38.6459,37.0744,-0.001102,-0.00017787,0.0,0 STARLINK-3311,1 50849U 22001AY  22134.66667824 -.00017787  00000-0 -11020-2 0  9996,2 50849  53.2178 321.6158 0001996  38.6459  37.0744 15.08846160 20860,6917.861999999999,95.437,541.107,538.346,0.0
50849.0,STARLINK-3311,PAYLOAD,2022-05-14 22:00:00,15.08865248,0.0002143,53.2177,320.4949,35.9224,318.492,-0.005192,-0.00082038,0.0,0 STARLINK-3311,1 50849U 22001AY  22134.91667824 -.00082038  00000-0 -51920-2 0  9998,2 50849  53.2177 320.4949 0002143  35.9224 318.4920 15.08865248  1307,6917.803000000001,95.436,541.151,538.186,0.0
50849.0,STARLINK-3311,PAYLOAD,2022-05-15 14:00:01,15.08852232,0.0001928,53.2183,317.4999,36.7356,340.9309,-0.00016354,-2.891e-05,0.0,0 STARLINK-3311,1 50849U 22001AY  22135.58335648 -.00002891  00000-0 -16354-3 0  9990,2 50849  53.2183 317.4999 0001928  36.7356 340.9309 15.08852232 21009,6917.843000000003,95.437,541.0419999999998,538.374,0.0
50849.0,STARLINK-3311,PAYLOAD,2022-05-15 22:00:00,15.08834291,0.0002109,53.2183,316.0051,31.7539,357.467,0.00086314,0.00013473,0.0,0 STARLINK-3311,1 50849U 22001AY  22135.91667824  .00013473  00000-0  86314-3 0  9990,2 50849  53.2183 316.0051 0002109  31.7539 357.4670 15.08834291  1303,6917.898,95.438,541.222,538.304,0.0
50849.0,STARLINK-3311,PAYLOAD,2022-05-16 14:00:01,15.08843181,0.0001974,53.2187,313.0107,36.7491,15.6556,-0.0013534,-0.00021765,0.0,0 STARLINK-3311,1 50849U 22001AY  22136.58334491 -.00021765  00000-0 -13534-2 0  9993,2 50849  53.2187 313.0107 0001974  36.7491  15.6556 15.08843181  1301,6917.871,95.437,541.101,538.37,0.0
50849.0,STARLINK-3311,PAYLOAD,2022-05-16 22:00:00,15.08821416,0.000215,53.2186,311.5157,31.9748,32.0296,0.00069928,0.00010853,0.0,0 STARLINK-3311,1 50849U 22001AY  22136.91667824  .00010853  00000-0  69928-3 0  9992,2 50849  53.2186 311.5157 0002150  31.9748  32.0296 15.08821416 21209,6917.937,95.439,541.29,538.315,0.0
50849.0,STARLINK-3311,PAYLOAD,2022-05-17 14:00:01,15.0885827,0.0001939,53.2189,308.5216,33.8323,53.3902,-0.001497,-0.00024046,0.0,0 STARLINK-3311,1 50849U 22001AY  22137.58335648 -.00024046  00000-0 -14970-2 0  9999,2 50849  53.2189 308.5216 0001939  33.8323  53.3902 15.08858270  1305,6917.825,95.436,541.031,538.3480000000002,0.0
50849.0,STARLINK-3311,PAYLOAD,2022-05-17 22:00:01,15.08816092,0.0002087,53.2186,307.0266,28.3364,70.5061,0.0027437,0.0004362,0.0,0 STARLINK-3311,1 50849U 22001AY  22137.91668981  .00043620  00000-0  27437-2 0  9994,2 50849  53.2186 307.0266 0002087  28.3364  70.5061 15.08816092  1303,6917.953,95.439,541.262,538.375,0.0
50849.0,STARLINK-3311,PAYLOAD,2022-05-18 06:00:00,15.08840268,0.0001895,53.2187,305.5286,30.7538,79.6174,0.00090709,0.00014178,0.0,0 STARLINK-3311,1 50849U 22001AY  22138.25001157  .00014178  00000-0  90709-3 0  9997,2 50849  53.2187 305.5286 0001895  30.7538  79.6174 15.08840268 21405,6917.88,95.438,541.056,538.434,0.0
50849.0,STARLINK-3311,PAYLOAD,2022-05-18 14:00:01,15.08853643,0.000199,53.2188,304.0328,34.6531,87.3115,-0.0018589,-0.00029762,0.0,0 STARLINK-3311,1 50849U 22001AY  22138.58334491 -.00029762  00000-0 -18589-2 0  9995,2 50849  53.2188 304.0328 0001990  34.6531  87.3115 15.08853643  1308,6917.839,95.437,541.08,538.327,0.0
50849.0,STARLINK-3311,PAYLOAD,2022-05-18 22:00:00,15.0881412,0.0002203,53.2183,302.5378,32.1633,101.4117,0.0019997,0.00031659,0.0,0 STARLINK-3311,1 50849U 22001AY  22138.91667824  .00031659  00000-0  19997-2 0  9991,2 50849  53.2183 302.5378 0002203  32.1633 101.4117 15.08814120 21506,6917.959,95.439,541.349,538.3,0.0
50849.0,STARLINK-3311,PAYLOAD,2022-05-19 14:00:01,15.08831476,0.0002038,53.2184,299.5442,35.4186,121.3604,-0.00076789,-0.00012486,0.0,0 STARLINK-3311,1 50849U 22001AY  22139.58335648 -.00012486  00000-0 -76789-3 0  9993,2 50849  53.2184 299.5442 0002038  35.4186 121.3604 15.08831476  1300,6917.906,95.438,541.181,538.362,0.0
50849.0,STARLINK-3311,PAYLOAD,2022-05-19 22:00:00,15.08819278,0.0002239,53.218,298.0491,31.7723,136.5332,0.0030871,0.00049159,0.0,0 STARLINK-3311,1 50849U 22001AY  22139.91667824  .00049159  00000-0  30871-2 0  9990,2 50849  53.2180 298.0491 0002239  31.7723 136.5332 15.08819278 21655,6917.944,95.439,541.3580000000002,538.26,0.0
